ORBCOMM FM20 [+]        
1 25416U 98046D   24034.95998128  .00001135  00000+0  44537-3 0  9994
2 25416  44.9965  20.9338 0002296 289.3771  70.6828 14.34841618332546
ORBCOMM FM16 [-]        
1 25417U 98046E   24034.91009957  .00001576  00000+0  58942-3 0  9998
2 25417  44.9963  17.6115 0005811 303.6832  56.3461 14.35685605332429
ORBCOMM FM15 [-]        
1 25418U 98046F   24034.98810011  .00001416  00000+0  53722-3 0  9991
2 25418  44.9995  21.0828 0005362 304.1641  55.8697 14.35427028332619
ORBCOMM FM13 [+]        
1 25420U 98046H   24035.09283206  .00001409  00000+0  53998-3 0  9994
2 25420  44.9997  24.1842 0006524 293.3221  66.6939 14.34932530332615
ORBCOMM FM22 [-]        
1 25476U 98053B   24034.98139826  .00001340  00000+0  51165-3 0  9996
2 25476  45.0088 106.5612 0004302 241.6578 118.3835 14.35354911325830
ORBCOMM FM23 [-]        
1 25477U 98053C   24034.30519948  .00001389  00000+0  53333-3 0  9992
2 25477  45.0089 114.5507 0003431 236.3469 123.7051 14.34924534325536
